BADR-5                  
1 36592U 10025A   26204.26194913  .00000158  00000+0  00000+0 0  9994
2 36592   0.0371 133.0101 0005334  58.4229 234.3564  1.00269047 53578
COMS 1                  
1 36744U 10032A   26204.29130944 -.00000138  00000+0  00000+0 0  9997
2 36744   4.8953  74.9198 0011528  15.4090 245.4264  0.99166005 51446
ARABSAT-5A              
1 36745U 10032B   26204.26194913  .00000158  00000+0  00000+0 0  9992
2 36745   0.1298  69.6169 0005365  57.8317 298.3276  1.00271198 59004
ECHOSTAR 15             
1 36792U 10034A   26203.98447513  .00000003  00000+0  00000+0 0  9990
2 36792   0.0228 307.6476 0002049 160.5936  68.1145  1.00274335 58686
BEIDOU-2 IGSO-1         
1 36828U 10036A   26203.83497221 -.00000090  00000+0  00000+0 0  9994
2 36828  54.3079 162.6381 0059059 225.2794 320.0279  1.00261993 58459
NILESAT 201             
1 36830U 10037A   26204.25449576 -.00000053  00000+0  00000+0 0  9994
2 36830   0.0334 202.0908 0005162 293.8927 249.6155  1.00271486 58731
RASCOM-QAF 1R           
1 36831U 10037B   26204.25640244  .00000023  00000+0  00000+0 0  9996
2 36831   0.0219  85.8434 0006030  26.3081 284.0357  1.00272257 58666
AEHF-1 (USA 214)        
1 36868U 10039A   26204.26186247  .00000145  00000+0  00000+0 0  9992
2 36868   8.3075  67.5763 0004029  38.6778 319.1183  1.00279578 54019
XM-5                    
1 37185U 10053A   26204.32590370 -.00000018  00000+0  00000+0 0  9994
2 37185   0.0616 262.9774 0001327 309.4997  90.7012  1.00271189 57842
BSAT-3B                 
1 37207U 10056B   26204.27754920 -.00000345  00000+0  00000+0 0  9992
2 37207   0.0558 240.9159 0002978 295.5439 334.2995  1.00270327 52466
BEIDOU-2 G4             
1 37210U 10057A   26204.34618936 -.00000111  00000+0  00000+0 0  9992
2 37210   3.7347  68.7195 0005248 183.0899 333.8521  1.00273299 57653
SKYTERRA 1              
1 37218U 10061A   26204.31742531 -.00000118  00000+0  00000+0 0  9998
2 37218   5.1999  50.7892 0002818  27.5999 235.6191  1.00276450 57551
HYLAS 1                 
1 37237U 10065A   26204.01403631  .00000100  00000+0  00000+0 0  9995
2 37237   5.7316  72.5747 0001216 133.3368 142.7165  1.00645786  7241
INTELSAT 17 (IS-17)     
1 37238U 10065B   26204.12637713  .00000003  00000+0  00000+0 0  9990
2 37238   0.0172 101.0219 0002396  20.7888 290.5478  1.00272272 53604
BEIDOU-2 IGSO-2         
1 37256U 10068A   26202.87819282 -.00000198  00000+0  00000+0 0  9992
2 37256  47.4828 271.3972 0057045 214.5351 238.1175  1.00271863 57143
EUTELSAT KA-SAT 9A      
1 37258U 10069A   26204.25761578  .00000066  00000+0  00000+0 0  9996
2 37258   0.0680 340.1857 0004726 167.4079 255.1437  1.00269411 44360
HISPASAT 30W-5          
1 37264U 10070A   26204.24990241 -.00000211  00000+0  00000+0 0  9998
2 37264   0.0233 155.4972 0005792 338.1506 227.3037  1.00275104 53545
KOREASAT 6              
1 37265U 10070B   26204.14501054 -.00000107  00000+0  00000+0 0  9992
2 37265   0.0148 310.0213 0002950 179.0477  23.9114  1.00273018 57137
BEIDOU-2 IGSO-3         
1 37384U 11013A   26202.49436278 -.00000172  00000+0  00000+0 0  9995
2 37384  62.4558  39.8259 0035881 183.5212 359.9880  1.00259347 56004
INTELSAT 28 (IS-28)     
1 37392U 11016A   26204.24955573 -.00000222  00000+0  00000+0 0  9992
2 37392   1.8967  82.1851 0004027  44.0862 232.8386  1.00271117 53649
YAHSAT 1A               
1 37393U 11016B   26204.26602249  .00000106  00000+0  00000+0 0  9994
2 37393   0.0157  77.7896 0003474  36.7565 334.7064  1.00269881 42776
SBIRS GEO-1 (USA 230)   
1 37481U 11019A   26204.12360378  .00000100  00000+0  00000+0 0  9998
2 37481   4.6132  53.0874 0001873  62.9581 281.1155  1.00272470 55756
TELSTAR 14R             
1 37602U 11021A   26204.28363427  .00000029  00000+0  00000+0 0  9991
2 37602   0.1037  85.0263 0007958 294.5132 282.5873  0.98982105 56198
GSAT-8                  
1 37605U 11022A   26204.12421045  .00000087  00000+0  00000+0 0  9993
2 37605   2.2212  81.3863 0002532 149.9343 169.3306  1.00272344 53577
ST-2                    
1 37606U 11022B   26204.15461444  .00000000  00000+0  00000+0 0  9999
2 37606   0.0171  55.2326 0001549  76.4466 312.8775  1.00270723 55632
ZHONGXING-10            
1 37677U 11026A   26204.15461444 -.00000185  00000+0  00000+0 0  9996
2 37677   1.1378  83.7989 0003676  22.0531 336.2184  1.00273093 55351
SES-3                   
1 37748U 11035A   26204.28309045 -.00000099  00000+0  00000+0 0  9991
2 37748   1.4172  82.6901 0002287  38.7892 178.4616  1.00272145 54956
KAZSAT-2                
1 37749U 11035B   26204.15461444 -.00000193  00000+0  00000+0 0  9995
2 37749   0.0230 112.2055 0002230  55.9535 274.9134  1.00271483 53758
BEIDOU-2 IGSO-4         
1 37763U 11038A   26203.99265681 -.00000035  00000+0  00000+0 0  9995
2 37763  54.6048 165.3543 0160072 231.4898 355.6942  1.00278691 55001
ASTRA 1N                
1 37775U 11041A   26204.25969579  .00000124  00000+0  00000+0 0  9997
2 37775   0.0673  25.7179 0006083  92.2663 295.6864  1.00274057 44883
BSAT-3C (JCSAT-110R)    
1 37776U 11041B   26204.27754920 -.00000346  00000+0  00000+0 0  9999
2 37776   0.0430 290.5868 0000358 241.1556 339.1338  1.00270548 50830
PAKSAT-1R               
1 37779U 11042A   26204.12083044  .00000157  00000+0  00000+0 0  9998
2 37779   0.7794  84.2594 0003223 357.3285 300.7254  1.00273436 54834
